{
    "links": {
        "self": "http://www.neowsapp.com/rest/v1/neo/3837995?api_key=iIulBulltgU6a56xZRHN4H3l9WmuAYTsLGpBGhQ2"
    },
    "id": "3837995",
    "neo_reference_id": "3837995",
    "name": "(2019 BQ2)",
    "designation": "2019 BQ2",
    "nasa_jpl_url": "http://ssd.jpl.nasa.gov/sbdb.cgi?sstr=3837995",
    "absolute_magnitude_h": 27.0,
    "estimated_diameter": {
        "kilometers": {
            "estimated_diameter_min": 0.0105816886,
            "estimated_diameter_max": 0.023661375
        },
        "meters": {
            "estimated_diameter_min": 10.5816885933,
            "estimated_diameter_max": 23.6613750114
        },
        "miles": {
            "estimated_diameter_min": 0.0065751544,
            "estimated_diameter_max": 0.0147024923
        },
        "feet": {
            "estimated_diameter_min": 34.7168272045,
            "estimated_diameter_max": 77.6291855923
        }
    },
    "is_potentially_hazardous_asteroid": false,
    "close_approach_data": [
        {
            "close_approach_date": "2019-01-27",
            "close_approach_date_full": "2019-Jan-27 19:30",
            "epoch_date_close_approach": 1548617400000,
            "relative_velocity": {
                "kilometers_per_second": "13.309482423",
                "kilometers_per_hour": "47914.1367226308",
                "miles_per_hour": "29771.9812319036"
            },
            "miss_distance": {
                "astronomical": "0.0084262786",
                "lunar": "3.2778223754",
                "kilometers": "1260553.330586582",
                "miles": "783271.5188435516"
            },
            "orbiting_body": "Earth"
        },
        {
            "close_approach_date": "2019-01-27",
            "close_approach_date_full": "2019-Jan-27 21:42",
            "epoch_date_close_approach": 1548625320000,
            "relative_velocity": {
                "kilometers_per_second": "12.4840895814",
                "kilometers_per_hour": "44942.722493031",
                "miles_per_hour": "27925.6599846281"
            },
            "miss_distance": {
                "astronomical": "0.0073092802",
                "lunar": "2.8433099978",
                "kilometers": "1093452.749153174",
                "miles": "679440.0322708412"
            },
            "orbiting_body": "Moon"
        },
        {
            "close_approach_date": "2022-05-19",
            "close_approach_date_full": "2022-May-19 08:13",
            "epoch_date_close_approach": 1652947980000,
            "relative_velocity": {
                "kilometers_per_second": "17.7743866495",
                "kilometers_per_hour": "63987.791938169",
                "miles_per_hour": "39759.5254962473"
            },
            "miss_distance": {
                "astronomical": "0.262392392",
                "lunar": "102.070640488",
                "kilometers": "39253342.94740504",
                "miles": "24390896.286627952"
            },
            "orbiting_body": "Earth"
        }
    ],
    "orbital_data": {
        "orbit_id": "2",
        "orbit_determination_date": "2019-01-28 07:45:50",
        "first_observation_date": "2019-01-26",
        "last_observation_date": "2019-01-27",
        "data_arc_in_days": 1,
        "observations_used": 37,
        "orbit_uncertainty": "7",
        "minimum_orbit_intersection": ".00650183",
        "jupiter_tisserand_invariant": "3.466",
        "epoch_osculation": "2459000.5",
        "eccentricity": ".5846546415554787",
        "semi_major_axis": "2.128023915486618",
        "inclination": "10.20068776871313",
        "ascending_node_longitude": "125.80126436",
        "orbital_period": "1133.869787532728",
        "perihelion_distance": ".883864855956303",
        "perihelion_argument": "46.25373707823837",
        "aphelion_distance": "3.372182975016933",
        "perihelion_time": "2458543.621012054793",
        "mean_anomaly": "145.0576049108523",
        "mean_motion": ".3174967742842421",
        "equinox": "J2000",
        "orbit_class": {
            "orbit_class_type": "APO",
            "orbit_class_description": "Near-Earth asteroid orbits which cross the Earth’s orbit similar to that of 1862 Apollo",
            "orbit_class_range": "a (semi-major axis) > 1.0 AU; q (perihelion) < 1.017 AU"
        }
    },
    "is_sentry_object": false
}